{
  "type": "FeatureCollection",
  "features": [
    {
      "type": "Feature",
      "properties": {
        "norad_id": 40069,
        "name": "METEOR-M 2",
        "group": "weather",
        "lat": -70.9547716308853,
        "lon": -10.515911272942272,
        "alt_km": 827.049347243621,
        "timestamp": "2025-12-12T05:47:28.414544+00:00",
        "meta_object_name": "METEOR-M 2",
        "meta_object_id": "2014-037A",
        "meta_epoch": "2025-12-12T01:03:55.575072",
        "meta_mean_motion": 14.21386635,
        "meta_eccentricity": 0.00049664,
        "meta_inclination": 98.4904,
        "meta_ra_of_asc_node": 323.6553,
        "meta_arg_of_pericenter": 212.0459,
        "meta_mean_anomaly": 148.0417,
        "meta_ephemeris_type": 0,
        "meta_classification_type": "U",
        "meta_norad_cat_id": 40069,
        "meta_element_set_no": 999,
        "meta_rev_at_epoch": 59273,
        "meta_bstar": 0.00019601142,
        "meta_mean_motion_dot": 3.86e-06,
        "meta_mean_motion_ddot": 0,
        "tle_line1": "1 40069U 14037A   25346.04439323  .00000386  00000+0  19601-3 0  9998",
        "tle_line2": "2 40069  98.4904 323.6553 0004966 212.0459 148.0417 14.21386635592730"
      },
      "geometry": {
        "type": "Point",
        "coordinates": [
          -10.515911272942272,
          -70.9547716308853
        ]
      }
    },
    {
      "type": "Feature",
      "properties": {
        "norad_id": 40267,
        "name": "HIMAWARI-8",
        "group": "weather",
        "lat": 0.015201934886733796,
        "lon": -51.29481953138308,
        "alt_km": 35781.485525386066,
        "timestamp": "2025-12-12T05:47:28.414556+00:00",
        "meta_object_name": "HIMAWARI-8",
        "meta_object_id": "2014-060A",
        "meta_epoch": "2025-12-11T21:01:39.374688",
        "meta_mean_motion": 1.00270133,
        "meta_eccentricity": 0.00012149,
        "meta_inclination": 0.0351,
        "meta_ra_of_asc_node": 192.2334,
        "meta_arg_of_pericenter": 111.8054,
        "meta_mean_anomaly": 232.8585,
        "meta_ephemeris_type": 0,
        "meta_classification_type": "U",
        "meta_norad_cat_id": 40267,
        "meta_element_set_no": 999,
        "meta_rev_at_epoch": 4088,
        "meta_bstar": 0,
        "meta_mean_motion_dot": -2.67e-06,
        "meta_mean_motion_ddot": 0,
        "tle_line1": "1 40267U 14060A   25345.87615017 -.00000267  00000+0  00000+0 0  9998",
        "tle_line2": "2 40267   0.0351 192.2334 0001214 111.8054 232.8585  1.00270133 40882"
      },
      "geometry": {
        "type": "Point",
        "coordinates": [
          -51.29481953138308,
          0.015201934886733796
        ]
      }
    },
    {
      "type": "Feature",
      "properties": {
        "norad_id": 40367,
        "name": "FENGYUN 2G",
        "group": "weather",
        "lat": -1.1346924669758107,
        "lon": -92.45021580123651,
        "alt_km": 35775.16682305894,
        "timestamp": "2025-12-12T05:47:28.414568+00:00",
        "meta_object_name": "FENGYUN 2G",
        "meta_object_id": "2014-090A",
        "meta_epoch": "2025-12-11T19:07:12.834912",
        "meta_mean_motion": 1.00264403,
        "meta_eccentricity": 0.00031275,
        "meta_inclination": 5.1663,
        "meta_ra_of_asc_node": 75.1088,
        "meta_arg_of_pericenter": 196.7827,
        "meta_mean_anomaly": 195.2176,
        "meta_ephemeris_type": 0,
        "meta_classification_type": "U",
        "meta_norad_cat_id": 40367,
        "meta_element_set_no": 999,
        "meta_rev_at_epoch": 4012,
        "meta_bstar": 0,
        "meta_mean_motion_dot": -2.93e-06,
        "meta_mean_motion_ddot": 0,
        "tle_line1": "1 40367U 14090A   25345.79667633 -.00000293  00000+0  00000+0 0  9993",
        "tle_line2": "2 40367   5.1663  75.1088 0003127 196.7827 195.2176  1.00264403 40123"
      },
      "geometry": {
        "type": "Point",
        "coordinates": [
          -92.45021580123651,
          -1.1346924669758107
        ]
      }
    },
    {
      "type": "Feature",
      "properties": {
        "norad_id": 40732,
        "name": "METEOSAT-11 (MSG-4)",
        "group": "weather",
        "lat": 2.6316061337197936,
        "lon": 177.3692049775649,
        "alt_km": 35783.31205065835,
        "timestamp": "2025-12-12T05:47:28.414580+00:00",
        "meta_object_name": "METEOSAT-11 (MSG-4)",
        "meta_object_id": "2015-034A",
        "meta_epoch": "2025-12-11T22:06:55.623168",
        "meta_mean_motion": 1.00267235,
        "meta_eccentricity": 9.338e-05,
        "meta_inclination": 2.7334,
        "meta_ra_of_asc_node": 72.0037,
        "meta_arg_of_pericenter": 125.564,
        "meta_mean_anomaly": 224.3435,
        "meta_ephemeris_type": 0,
        "meta_classification_type": "U",
        "meta_norad_cat_id": 40732,
        "meta_element_set_no": 999,
        "meta_rev_at_epoch": 533,
        "meta_bstar": 0,
        "meta_mean_motion_dot": 7e-07,
        "meta_mean_motion_ddot": 0,
        "tle_line1": "1 40732U 15034A   25345.92147712  .00000070  00000+0  00000+0 0  9996",
        "tle_line2": "2 40732   2.7334  72.0037 0000933 125.5640 224.3435  1.00267235  5334"
      },
      "geometry": {
        "type": "Point",
        "coordinates": [
          177.3692049775649,
          2.6316061337197936
        ]
      }
    },
    {
      "type": "Feature",
      "properties": {
        "norad_id": 41105,
        "name": "ELEKTRO-L 2",
        "group": "weather",
        "lat": 6.147743078071637,
        "lon": 153.46834774297142,
        "alt_km": 35793.60991644696,
        "timestamp": "2025-12-12T05:47:28.414593+00:00",
        "meta_object_name": "ELEKTRO-L 2",
        "meta_object_id": "2015-074A",
        "meta_epoch": "2025-12-11T23:42:55.963008",
        "meta_mean_motion": 1.00272244,
        "meta_eccentricity": 0.00039115,
        "meta_inclination": 6.2242,
        "meta_ra_of_asc_node": 72.8364,
        "meta_arg_of_pericenter": 201.51,
        "meta_mean_anomaly": 147.828,
        "meta_ephemeris_type": 0,
        "meta_classification_type": "U",
        "meta_norad_cat_id": 41105,
        "meta_element_set_no": 999,
        "meta_rev_at_epoch": 3662,
        "meta_bstar": 0,
        "meta_mean_motion_dot": -1.09e-06,
        "meta_mean_motion_ddot": 0,
        "tle_line1": "1 41105U 15074A   25345.98814772 -.00000109  00000+0  00000+0 0  9992",
        "tle_line2": "2 41105   6.2242  72.8364 0003911 201.5100 147.8280  1.00272244 36621"
      },
      "geometry": {
        "type": "Point",
        "coordinates": [
          153.46834774297142,
          6.147743078071637
        ]
      }
    },
    {
      "type": "Feature",
      "properties": {
        "norad_id": 41752,
        "name": "INSAT-3DR",
        "group": "weather",
        "lat": 0.017369755969118945,
        "lon": -118.02801481735011,
        "alt_km": 35732.87563755166,
        "timestamp": "2025-12-12T05:47:28.414605+00:00",
        "meta_object_name": "INSAT-3DR",
        "meta_object_id": "2016-054A",
        "meta_epoch": "2025-12-11T22:25:23.854368",
        "meta_mean_motion": 1.00270772,
        "meta_eccentricity": 0.00143964,
        "meta_inclination": 0.0899,
        "meta_ra_of_asc_node": 86.6387,
        "meta_arg_of_pericenter": 184.0556,
        "meta_mean_anomaly": 220.5416,
        "meta_ephemeris_type": 0,
        "meta_classification_type": "U",
        "meta_norad_cat_id": 41752,
        "meta_element_set_no": 999,
        "meta_rev_at_epoch": 3394,
        "meta_bstar": 0,
        "meta_mean_motion_dot": -6.8e-07,
        "meta_mean_motion_ddot": 0,
        "tle_line1": "1 41752U 16054A   25345.93430387 -.00000068  00000+0  00000+0 0  9994",
        "tle_line2": "2 41752   0.0899  86.6387 0014396 184.0556 220.5416  1.00270772 33942"
      },
      "geometry": {
        "type": "Point",
        "coordinates": [
          -118.02801481735011,
          0.017369755969118945
        ]
      }
    },
    {
      "type": "Feature",
      "properties": {
        "norad_id": 41836,
        "name": "HIMAWARI-9",
        "group": "weather",
        "lat": -0.02594726324197768,
        "lon": -51.15734913324755,
        "alt_km": 35781.607498944715,
        "timestamp": "2025-12-12T05:47:28.414617+00:00",
        "meta_object_name": "HIMAWARI-9",
        "meta_object_id": "2016-064A",
        "meta_epoch": "2025-12-11T21:01:46.862976",
        "meta_mean_motion": 1.00273832,
        "meta_eccentricity": 0.00012135,
        "meta_inclination": 0.0342,
        "meta_ra_of_asc_node": 93.1676,
        "meta_arg_of_pericenter": 175.9777,
        "meta_mean_anomaly": 267.9081,
        "meta_ephemeris_type": 0,
        "meta_classification_type": "U",
        "meta_norad_cat_id": 41836,
        "meta_element_set_no": 999,
        "meta_rev_at_epoch": 3333,
        "meta_bstar": 0,
        "meta_mean_motion_dot": -2.66e-06,
        "meta_mean_motion_ddot": 0,
        "tle_line1": "1 41836U 16064A   25345.87623684 -.00000266  00000+0  00000+0 0  9995",
        "tle_line2": "2 41836   0.0342  93.1676 0001213 175.9777 267.9081  1.00273832 33336"
      },
      "geometry": {
        "type": "Point",
        "coordinates": [
          -51.15734913324755,
          -0.02594726324197768
        ]
      }
    }
  ]
}